1 45577U 20025AY  22365.43548286  .00034976  00000-0  19963-2 0  9994
2 45577  53.0510 260.4706 0003232 107.7953 252.3391 15.12441259150062
1 45577U 20025AY  23001.09628586  .00033024  00000-0  18838-2 0  9999
2 45577  53.0512 257.4756 0003306 108.4984 251.6367 15.12489660149554
1 45577U 20025AY  23001.42667878  .00035889  00000-0  20434-2 0  9999
2 45577  53.0515 255.9782 0003294 109.2477 250.8872 15.12516923150211
1 45577U 20025AY  23001.95529871  .00031258  00000-0  17815-2 0  9992
2 45577  53.0517 253.5826 0003291 109.8453 250.2894 15.12548256150293
1 45577U 20025AY  23002.41783111  .00035450  00000-0  20151-2 0  9998
2 45577  53.0516 251.4857 0003270 111.2623 248.8718 15.12581322150363
1 45577U 20025AY  23002.41783111  .00035450  00000-0  20151-2 0  9998
2 45577  53.0516 251.4857 0003270 111.2623 248.8718 15.12581322149754
1 45577U 20025AY  23002.94643007  .00027104  00000-0  15454-2 0  9992
2 45577  53.0515 249.0901 0003280 111.7135 248.4206 15.12606189150445
1 45577U 20025AY  23003.07857832  .00027004  00000-0  15395-2 0  9993
2 45577  53.0516 248.4913 0003258 111.9294 248.2045 15.12613152149855
1 45577U 20025AY  23003.40894536  .00030173  00000-0  17164-2 0  9999
2 45577  53.0518 246.9936 0003238 113.0788 247.0545 15.12634865150515
1 45577U 20025AY  23003.93752580  .00026294  00000-0  14977-2 0  9997
2 45577  53.0520 244.5982 0003236 113.4148 246.7184 15.12659244150596
1 45577U 20025AY  23004.92857946  .00034411  00000-0  19486-2 0  9999
2 45577  53.0520 240.1055 0003198 115.9702 244.1619 15.12732909150741
1 45577U 20025AY  23005.06071628  .00035387  00000-0  20025-2 0  9994
2 45577  53.0520 239.5061 0003190 116.8492 243.2826 15.12744063150764
1 45577U 20025AY  23005.06071628  .00035387  00000-0  20025-2 0  9994
2 45577  53.0520 239.5061 0003190 116.8492 243.2826 15.12744063150157
1 45577U 20025AY  23006.31597034  .00037079  00000-0  20913-2 0  9993
2 45577  53.0518 233.8152 0003116 120.3650 239.7650 15.12841423150957
1 45577U 20025AY  23006.31597034  .00037079  00000-0  20913-2 0  9993
2 45577  53.0518 233.8152 0003116 120.3650 239.7650 15.12841423150340
1 45577U 20025AY  23007.04266044  .00032697  00000-0  18446-2 0  9997
2 45577  53.0515 230.5200 0003044 122.5123 237.6163 15.12892556151063
1 45577U 20025AY  23007.63720735  .00032488  00000-0  18309-2 0  9990
2 45577  53.0512 227.8240 0003009 124.5343 235.5933 15.12933329150548
1 45577U 20025AY  23007.90144540  .00034244  00000-0  19275-2 0  9999
2 45577  53.0510 226.6256 0002983 125.7285 234.3984 15.12951454151192
1 45577U 20025AY  23008.56202795  .00032305  00000-0  18177-2 0  9995
2 45577  53.0505 223.6299 0002969 127.7087 232.4174 15.12993664151296
1 45577U 20025AY  23008.89231190  .00035049  00000-0  19686-2 0  9996
2 45577  53.0503 222.1318 0002984 129.5137 230.6119 15.13016817151345
1 45577U 20025AY  23008.95836800  .00035756  00000-0  20075-2 0  9991
2 45577  53.0502 221.8322 0002949 129.5350 230.5903 15.13021950150740
1 45577U 20025AY  23009.61891922  .00030897  00000-0  17361-2 0  9996
2 45577  53.0502 218.8360 0002899 131.1434 228.9809 15.13064144151451
1 45577U 20025AY  23010.01524048  .00034931  00000-0  19579-2 0  9990
2 45577  53.0499 217.0383 0002861 131.5703 228.5534 15.13093505150907
1 45577U 20025AY  23010.27945021  .00033949  00000-0  19026-2 0  9991
2 45577  53.0499 215.8398 0002835 132.4970 227.6262 15.13111995151550
1 45577U 20025AY  23011.00600899  .00043604  00000-0  24315-2 0  9990
2 45577  53.0497 212.5438 0002724 134.1416 225.9800 15.13173608151051
1 45577U 20025AY  23011.53439785  .00044284  00000-0  24659-2 0  9998
2 45577  53.0495 210.1463 0002690 135.1645 224.9565 15.13217359151743
1 45577U 20025AY  23011.79858590  .00045008  00000-0  25041-2 0  9996
2 45577  53.0495 208.9476 0002655 135.1756 224.9450 15.13240664151788
1 45577U 20025AY  23012.52507978  .00044659  00000-0  24801-2 0  9993
2 45577  53.0497 205.6510 0002548 136.0265 224.0929 15.13310112151282
1 45577U 20025AY  23012.92133524  .00046509  00000-0  25787-2 0  9999
2 45577  53.0495 203.8529 0002484 135.4207 224.6985 15.13348477151955
1 45577U 20025AY  23013.51569849  .00050458  00000-0  27898-2 0  9991
2 45577  53.0497 201.1553 0002382 135.3969 224.7215 15.13411550152047
1 45577U 20025AY  23013.51569849  .00050458  00000-0  27898-2 0  9991
2 45577  53.0497 201.1553 0002382 135.3969 224.7215 15.13411550151439
1 45577U 20025AY  23013.91192649  .00053608  00000-0  29580-2 0  9995
2 45577  53.0497 199.3569 0002320 134.7013 225.4168 15.13455953152104
1 45577U 20025AY  23014.24210671  .00064544  00000-0  35480-2 0  9995
2 45577  53.0498 197.8582 0002249 134.9106 225.2069 15.13502427151542
1 45577U 20025AY  23015.49671031  .00072765  00000-0  39749-2 0  9990
2 45577  53.0504 192.1638 0001843 130.5600 229.5552 15.13666719152348
1 45577U 20025AY  23015.49671031  .00072765  00000-0  39749-2 0  9990
2 45577  53.0504 192.1638 0001843 130.5600 229.5552 15.13666719151730
1 45577U 20025AY  23015.76081637  .00064008  00000-0  34983-2 0  9993
2 45577  53.0506 190.9644 0001757 130.9522 229.1622 15.13712738152385
1 45577U 20025AY  23016.48706960  .00083421  00000-0  45258-2 0  9993
2 45577  53.0511 187.6673 0001540 129.2833 230.8296 15.13840194152498
1 45577U 20025AY  23016.48706960  .00083421  00000-0  45258-2 0  9993
2 45577  53.0511 187.6673 0001540 129.2833 230.8296 15.13840194151880
1 45577U 20025AY  23016.68512996  .00067322  00000-0  36620-2 0  9994
2 45577  53.0514 186.7676 0001506 131.5513 228.5609 15.13857569152527
1 45577U 20025AY  23016.68512996  .00067322  00000-0  36620-2 0  9994
2 45577  53.0514 186.7676 0001506 131.5513 228.5609 15.13857569151919
1 45577U 20025AY  23017.41132728  .00055892  00000-0  30414-2 0  9991
2 45577  53.0509 183.4693 0001303 130.8121 229.2985 15.13933658152637
1 45577U 20025AY  23017.41132728  .00055892  00000-0  30414-2 0  9991
2 45577  53.0509 183.4693 0001303 130.8121 229.2985 15.13933658152020
1 45577U 20025AY  23017.74140397  .00060463  00000-0  32830-2 0  9992
2 45577  53.0509 181.9698 0001226 132.7256 227.3839 15.13973517152689
1 45577U 20025AY  23018.46754238  .00077355  00000-0  41743-2 0  9998
2 45577  53.0506 178.6716 0001075 124.9857 235.1236 15.14071212152794
1 45577U 20025AY  23018.46754238  .00077355  00000-0  41743-2 0  9998
2 45577  53.0506 178.6716 0001075 124.9857 235.1236 15.14071212152187
1 45577U 20025AY  23018.73158128  .00071274  00000-0  38474-2 0  9995
2 45577  53.0508 177.4716 0001043 125.4634 234.6456 15.14102028152830
1 45577U 20025AY  23019.12762963  .00067250  00000-0  36287-2 0  9996
2 45577  53.0504 175.6723 0000964 124.0214 236.0870 15.14145462152288
1 45577U 20025AY  23019.39165529  .00054192  00000-0  29305-2 0  9994
2 45577  53.0503 174.4729 0000886 121.5969 238.5110 15.14170750152936
1 45577U 20025AY  23020.11769707  .00064555  00000-0  34739-2 0  9995
2 45577  53.0500 171.1736 0000814 117.6379 242.4696 15.14261154152434
1 45577U 20025AY  23020.64570339  .00054921  00000-0  29573-2 0  9990
2 45577  53.0499 168.7738 0000750 115.0573 245.0498 15.14316299152511
1 45577U 20025AY  23021.10769031  .00066484  00000-0  35645-2 0  9995
2 45577  53.0499 166.6746 0000701 102.1945 257.9126 15.14378423152587
1 45577U 20025AY  23021.70164546  .00072649  00000-0  38809-2 0  9996
2 45577  53.0505 163.9746 0000727  93.5057 266.6019 15.14463335152675
1 45577U 20025AY  23022.36156083  .00064270  00000-0  34316-2 0  9996
2 45577  53.0507 160.9753 0000778  76.3858 283.7221 15.14541617152772
1 45577U 20025AY  23023.41735289  .00057964  00000-0  30885-2 0  9993
2 45577  53.0506 156.1749 0000897  58.5082 301.5998 15.14664755152933
1 45577U 20025AY  23023.61530481  .00053007  00000-0  28262-2 0  9992
2 45577  53.0507 155.2745 0000874  57.8731 302.2347 15.14683184152964
1 45577U 20025AY  23025.59467411  .00046926  00000-0  24917-2 0  9998
2 45577  53.0513 146.2724 0001262  42.4490 317.6600 15.14885371153877
1 45577U 20025AY  23025.59467411  .00046926  00000-0  24917-2 0  9998
2 45577  53.0513 146.2724 0001262  42.4490 317.6600 15.14885371153260
1 45577U 20025AY  23026.58426425  .00051069  00000-0  27013-2 0  9992
2 45577  53.0511 141.7702 0001520  44.0562 316.0552 15.14982861154025
1 45577U 20025AY  23026.78217514  .00050307  00000-0  26602-2 0  9998
2 45577  53.0501 140.8698 0001583  39.5173 320.5934 15.15000219153442
1 45577U 20025AY  23027.57379478  .00041793  00000-0  22112-2 0  9995
2 45577  53.0505 137.2678 0001723  39.6353 320.4765 15.15066420154179
1 45577U 20025AY  23027.63976137  .00042713  00000-0  22588-2 0  9997
2 45577  53.0506 136.9674 0001727  40.2581 319.8539 15.15072987154184
1 45577U 20025AY  23027.63976137  .00042713  00000-0  22588-2 0  9997
2 45577  53.0506 136.9674 0001727  40.2581 319.8539 15.15072987153576
1 45577U 20025AY  23028.56327217  .00037464  00000-0  19807-2 0  9996
2 45577  53.0509 132.7651 0001862  39.1104 321.0024 15.15143275154323
1 45577U 20025AY  23028.69519925  .00035395  00000-0  18723-2 0  9996
2 45577  53.0511 132.1650 0001927  39.4034 320.7098 15.15151041154345
1 45577U 20025AY  23028.69519925  .00035395  00000-0  18723-2 0  9996
2 45577  53.0511 132.1650 0001927  39.4034 320.7098 15.15151041153737
1 45577U 20025AY  23029.75058491  .00029742  00000-0  15740-2 0  9995
2 45577  53.0518 127.3623 0002154  39.1436 320.9712 15.15220335154500
1 45577U 20025AY  23029.75058491  .00029742  00000-0  15740-2 0  9995
2 45577  53.0518 127.3623 0002154  39.1436 320.9712 15.15220335153891
1 45577U 20025AY  23030.47613737  .00026430  00000-0  13996-2 0  9998
2 45577  53.0523 124.0600 0002288  39.6018 320.5142 15.15259677154610
1 45577U 20025AY  23030.93784203  .00027303  00000-0  14440-2 0  9991
2 45577  53.0524 121.9588 0002335  39.7437 320.3726 15.15287394154074
1 45577U 20025AY  23031.53145084  .00029875  00000-0  15764-2 0  9992
2 45577  53.0527 119.2577 0002435  40.2799 319.8374 15.15322536154771
1 45577U 20025AY  23031.92718206  .00029367  00000-0  15489-2 0  9997
2 45577  53.0527 117.4561 0002434  41.3022 318.8154 15.15346276154833
